LEO VANTAGE 1           
1 43113U 18004C   21213.90828311 -.00000056  00000-0 -76831-5 0  9999
2 43113  99.3056 269.8469 0112038  27.4746 333.2277 13.92273877178704
ICEYE-X1                
1 43114U 18004D   21214.15900240  .00001542  00000-0  65235-4 0  9994
2 43114  97.4024 286.1640 0010592  45.5586 314.6516 15.24672429197542
CARBONITE 2             
1 43115U 18004E   21214.17544544  .00000705  00000-0  32720-4 0  9991
2 43115  97.3996 284.9119 0011143  49.8401 310.3810 15.23245498197487
INS-1C                  
1 43116U 18004F   21214.17768699  .00001625  00000-0  67242-4 0  9990
2 43116  97.4119 288.2283 0010088  48.9314 311.2794 15.25364308197615
CORVUS BC3              
1 43118U 18004H   21213.84346795  .00001321  00000-0  56742-4 0  9990
2 43118  97.4012 285.8321 0011323  55.9210 304.3100 15.24388764197492
FLOCK 3P'-3             
1 43119U 18004J   21213.44661800  .00001256  00000-0  54081-4 0  9995
2 43119  97.4109 286.3295 0011187  58.5106 301.7223 15.24408820197434
FLOCK 3P'-2             
1 43120U 18004K   21213.62925597  .00001030  00000-0  45326-4 0  9995
2 43120  97.4116 286.2900 0011246  58.5664 301.6671 15.24056030197440
FLOCK 3P'-4             
1 43122U 18004M   21213.62381326  .00001141  00000-0  49875-4 0  9999
2 43122  97.4125 286.3977 0011106  60.4116 299.8227 15.24085024197446
LEMUR-2-MCCAFFERTY      
1 43123U 18004N   21214.20096899  .00002608  00000-0  99117-4 0  9996
2 43123  97.4106 290.0024 0009972  49.3013 310.9091 15.27658158197745
LEMUR-2-PETERWEBSTER    
1 43124U 18004P   21213.63046183  .00002779  00000-0  10590-3 0  9990
2 43124  97.4107 289.2660 0009968  50.3751 309.8366 15.27515016197656
LEMUR-2-BROWNCOW        
1 43125U 18004Q   21214.17476622  .00002983  00000-0  11035-3 0  9998
2 43125  97.4136 290.6416 0009597  47.5879 312.6171 15.28441527197787
LEMUR-2-DAVEWILSON      
1 43126U 18004R   21214.19923018  .00003043  00000-0  11300-3 0  9990
2 43126  97.4127 290.4293 0009694  49.1981 311.0098 15.28297317197775
DEMOSAT 2               
1 43127U 18004S   21213.89016609  .00001446  00000-0  61359-4 0  9991
2 43127  97.4034 286.5319 0010687  57.1445 303.0820 15.24676202197534
ARKYD 6A                
1 43130U 18004V   21213.64550615  .00001592  00000-0  66259-4 0  9994
2 43130  97.4053 286.9035 0010654  57.3787 302.8478 15.25180373197528
MICROMAS-2A             
1 43131U 18004W   21213.64847652  .00002940  00000-0  11121-3 0  9990
2 43131  97.4096 289.2903 0009448  51.8826 308.3263 15.27720681197660
PICSAT                  
1 43132U 18004X   21213.63256985  .00001804  00000-0  72788-4 0  9998
2 43132  97.4073 287.7712 0010286  56.1731 304.0485 15.26064201197579
CNUSAIL-1               
1 43133U 18004Y   21213.95308099  .00001552  00000-0  64966-4 0  9997
2 43133  97.4044 287.0142 0010519  57.0549 303.1699 15.25020178197564
2018-004Z               
1 43134U 18004Z   21213.62864832  .00001836  00000-0  74871-4 0  9995
2 43134  97.4060 287.4213 0010247  57.5809 302.6419 15.25671242197555
2018-004AA              
1 43135U 18004AA  21214.01321795  .00002465  00000-0  96738-4 0  9991
2 43135  97.4080 288.6787 0009971  54.5105 305.7062 15.26636976197661
2018-004AB              
1 43136U 18004AB  21213.48790335  .00002536  00000-0  97959-4 0  9997
2 43136  97.4099 288.7646 0009743  56.4127 303.8041 15.27149116197616
FOX-1D (AO-92)          
1 43137U 18004AC  21213.85985497  .00001755  00000-0  72226-4 0  9996
2 43137  97.4048 287.4275 0010095  58.0212 302.2005 15.25434515197587
SPACEBEE-4              
1 43139U 18004AE  21214.19093636  .00003891  00000-0  13604-3 0  9998
2 43139  97.4163 292.3838 0008428  49.5621 310.6354 15.30119372197872
SPACEBEE-3              
1 43140U 18004AF  21213.45673322  .00005608  00000-0  18382-3 0  9990
2 43140  97.4193 293.2857 0007733  48.7914 311.3993 15.32020738197867
SPACEBEE-2              
1 43141U 18004AG  21214.16424122  .00006019  00000-0  19302-3 0  9992
2 43141  97.4214 294.6234 0007460  44.9998 315.1847 15.32695206198008
SPACEBEE-1              
1 43142U 18004AH  21214.11855060  .00006453  00000-0  20162-3 0  9995
2 43142  97.4224 295.2142 0007280  44.4838 315.6988 15.33500425198025
CICERO 7                
1 43143U 18004AJ  21214.18693340  .00002578  00000-0  98357-4 0  9990
2 43143  97.4069 289.8472 0008021  60.0600 300.1435 15.27555158197765
TYVAK-61C               
1 43144U 18004AK  21214.19556546  .00002642  00000-0  98768-4 0  9996
2 43144  97.4128 291.1703 0008502  63.0017 297.2090 15.28215741197826
LKW-3                   
1 43146U 18006A   21214.18044162  .00001263  00000-0  56255-4 0  9998
2 43146  97.4554 333.1481 0004331  60.9007  58.9905 15.23289351197440
ASNARO-2                
1 43152U 18007A   21214.15572701 -.00001247  00000-0 -51074-4 0  9996
2 43152  97.4232 218.9956 0001803  92.1175 332.2331 15.22385591196599
XIAOXIANG-2             
1 43155U 18008A   21214.17409682  .00001745  00000-0  10334-3 0  9993
2 43155  97.3994 277.7647 0017622 165.1189 279.6207 15.12567674194988
ZHOU ENLAI              
1 43156U 18008B   21214.18683934  .00001745  00000-0  10454-3 0  9992
2 43156  97.4035 277.6138 0014797 164.0212 281.5473 15.12182205194929
KIPP                    
1 43157U 18008C   21213.90361135  .00001017  00000-0  62854-4 0  9992
2 43157  97.4081 277.3926 0015817 162.0025 198.1769 15.11929484194857
QUANTUTONG 1            
1 43158U 18008D   21214.13521947  .00001063  00000-0  66185-4 0  9990
2 43158  97.3977 276.0725 0013752 163.3115 220.3114 15.11592107194843
JILIN-01-07             
1 43159U 18008E   21214.16991184  .00000834  00000-0  54504-4 0  9995
2 43159  97.3931 274.4776 0014066 165.5767 279.3013 15.10338654194787
JILIN-01-08             
1 43160U 18008F   21214.18860230  .00000516  00000-0  35181-4 0  9993
2 43160  97.3920 274.3702 0009376 176.1155 268.6651 15.10360527194785
SBIRS GEO-3 (USA 282)   
1 43162U 18009A   21213.82923391 -.00000284  00000-0  00000+0 0  9994
2 43162   4.1598 317.3555 0002281 183.1067 247.6932  1.00271721 12987
LEMUR-2-MARSHALL        
1 43165U 18010C   21213.87239423  .00001878  00000-0  77820-4 0  9998
2 43165  82.9171   9.1424 0029660  28.8792 331.4079 15.22816048195782
LEMUR-2-TALLHAMN-ATC    
1 43167U 18010E   21213.89275164  .00002050  00000-0  92358-4 0  9990
2 43167  82.9204  13.6064 0024366  48.0341 312.2965 15.20185100195511
WEINA 1A                
1 43169U 18011A   21213.98614774  .00000252  00000-0  28435-4 0  9994
2 43169  35.0015  71.5606 0002149 136.8221 223.2652 14.89929815191675
YAOGAN 30 K             
1 43170U 18011B   21213.94425492  .00000290  00000-0  32290-4 0  9995
2 43170  34.9996  72.0115 0006023  20.1959 339.8983 14.89946004191661
YAOGAN 30 L             
1 43171U 18011C   21214.00520925  .00000301  00000-0  33387-4 0  9992
2 43171  34.9995  71.4993 0002126  56.0656 304.0250 14.89954457191673
YAOGAN 30 M             
1 43172U 18011D   21214.00105734  .00000307  00000-0  33989-4 0  9994
2 43172  35.0007  71.6026 0002753 128.3143 231.7815 14.89950969191676
AL YAH 3                
1 43174U 18012A   21214.06154017 -.00000153  00000-0  00000+0 0  9994
2 43174   0.0331 257.7714 0001877 241.3923 173.7544  1.00270901 12989
SES-14                  
1 43175U 18012B   21213.69723229 -.00000276  00000-0  00000-0 0  9997
2 43175   0.0164  60.7479 0000868  89.9686   3.2845  1.00272804 13217
KANOPUS-V 3             
1 43180U 18014A   21214.17431605  .00000307  00000-0  17623-4 0  9990
2 43180  97.4425 122.4518 0002095  93.8514  43.4170 15.19530247194020
KANOPUS-V 4             
1 43181U 18014B   21214.21820844  .00000464  00000-0  25001-4 0  9996
2 43181  97.4424 122.5396 0001222  78.2701  85.6824 15.19535658194048
LEMUR-2-JIN-LUEN        
1 43182U 18014C   21213.67640104  .00000988  00000-0  90267-4 0  9992
2 43182  97.6640 118.7052 0012327 297.0005  62.9958 14.97217662191021
LEMUR-2-URAMCHANSOL     
1 43183U 18014D   21213.69531539  .00001095  00000-0  99291-4 0  9992
2 43183  97.6660 118.8639 0012205 299.1963  60.8037 14.97307207191038
LEMUR-2-KADI            
1 43184U 18014E   21213.69623060  .00000915  00000-0  83993-4 0  9996
2 43184  97.6657 118.8652 0012091 300.0298  59.9724 14.97218653191034
LEMUR-2-THENICKMOLO     
1 43185U 18014F   21213.68337248  .00001162  00000-0  10516-3 0  9991
2 43185  97.6661 118.9541 0011908 299.5046  60.4988 14.97272847191031
S-NET D                 
1 43186U 18014G   21214.00667699  .00000319  00000-0  32645-4 0  9996
2 43186  97.6731 120.7695 0009624 291.8348  68.1850 14.97096680191114
S-NET B                 
1 43187U 18014H   21213.60558660  .00000290  00000-0  30181-4 0  9990
2 43187  97.6729 120.3407 0009648 293.2887  66.7319 14.97095802191051
S-NET A                 
1 43188U 18014J   21213.67250979  .00000294  00000-0  30502-4 0  9991
2 43188  97.6731 120.4532 0009639 293.1721  66.8485 14.97094746191063
S-NET C                 
1 43189U 18014K   21214.00718529  .00000336  00000-0  34158-4 0  9998
2 43189  97.6728 120.7271 0009585 291.7299  68.2902 14.97094806189667
FENGMANIU-1 (FMN-1)     
1 43192U 18015A   21214.18508279  .00004422  00000-0  16209-3 0  9997
2 43192  97.4949 349.8037 0015894  82.4391  41.1637 15.28417403194574
ZHANGHENG 1 (CSES)      
1 43194U 18015C   21214.18667049  .00001731  00000-0  81228-4 0  9994
2 43194  97.4848 341.2346 0014087 109.0382  11.0398 15.20932804194098
NUSAT-4 (ADA)           
1 43195U 18015D   21214.18559236  .00002269  00000-0  90761-4 0  9992
2 43195  97.4928 347.8456 0018361  93.1297  29.3635 15.26005402194490
GOMX-4B                 
1 43196U 18015E   21213.80940379  .00001407  00000-0  59010-4 0  9998
2 43196  97.4908 346.8329 0019888 100.1935 260.1546 15.25025478194423
GOMX-4A                 
1 43197U 18015F   21214.15361550  .00001669  00000-0  68317-4 0  9996
2 43197  97.4902 347.4702 0020101 100.0624  74.6066 15.25585428194504
